LEMUR-2-MARSHALL        
1 43165U 18010C   21073.15247745  .00003115  00000-0  13314-3 0  9992
2 43165  82.9172 141.8057 0030802 159.8902 200.3557 15.22006609174378
LEMUR-2-TALLHAMN-ATC    
1 43167U 18010E   21072.66765779  .00002736  00000-0  12640-3 0  9990
2 43167  82.9214 146.1472 0023985 178.1062 182.0269 15.19485319174068
WEINA 1A                
1 43169U 18011A   21073.46331105  .00000208  00000-0  23991-4 0  9998
2 43169  34.9998 191.0792 0003831 356.3403   3.7285 14.89865544170709
YAOGAN 30 K             
1 43170U 18011B   21073.42322410  .00000267  00000-0  29980-4 0  9994
2 43170  34.9982 191.5621 0006604 274.0386  85.9564 14.89887446170692
YAOGAN 30 L             
1 43171U 18011C   21073.41787621  .00000244  00000-0  27615-4 0  9991
2 43171  34.9979 191.4600 0003896 311.4166  48.6217 14.89889088170692
YAOGAN 30 M             
1 43172U 18011D   21073.41272305  .00000247  00000-0  27967-4 0  9993
2 43172  34.9991 191.5440 0004491 351.6361   8.4275 14.89876528170698
AL YAH 3                
1 43174U 18012A   21073.09048396 -.00000171  00000-0  00000+0 0  9992
2 43174   0.0279 257.8215 0001497  96.2736 190.2864  1.00270772 11573
SES-14                  
1 43175U 18012B   21073.08498810 -.00000293  00000-0  00000+0 0  9997
2 43175   0.0192 165.1032 0000650 151.9131 198.0144  1.00277825 11791
KANOPUS-V 3             
1 43180U 18014A   21073.49281027  .00000184  00000-0  11879-4 0  9999
2 43180  97.4519 343.6953 0001043  81.0561 327.4634 15.19410963172665
KANOPUS-V 4             
1 43181U 18014B   21073.40415736  .00003572  00000-0  17163-3 0  9992
2 43181  97.4389 343.6548 0001602  74.1739 350.6522 15.19471610172662
LEMUR-2-JIN-LUEN        
1 43182U 18014C   21072.78382623  .00000292  00000-0  30407-4 0  9994
2 43182  97.6749 340.4759 0015180  48.7634 311.4893 14.96980058169949
LEMUR-2-URAMCHANSOL     
1 43183U 18014D   21073.01087737  .00001068  00000-0  97491-4 0  9998
2 43183  97.6751 340.8077 0015072  49.6481 310.6054 14.97058077169982
LEMUR-2-KADI            
1 43184U 18014E   21072.80441605  .00000808  00000-0  75090-4 0  9995
2 43184  97.6748 340.6237 0014824  50.8046 309.4489 14.97000869169951
LEMUR-2-THENICKMOLO     
1 43185U 18014F   21073.19744560  .00000591  00000-0  56232-4 0  9991
2 43185  97.6757 341.0817 0014662  49.1295 311.1195 14.97045493170013
S-NET D                 
1 43186U 18014G   21072.70757921  .00000283  00000-0  29632-4 0  9995
2 43186  97.6842 341.9889 0012341  48.2689 311.9586 14.96993939169977
S-NET B                 
1 43187U 18014H   21072.70746629  .00000287  00000-0  29931-4 0  9995
2 43187  97.6839 341.9585 0012338  48.1838 312.0436 14.96993480169975
S-NET A                 
1 43188U 18014J   21072.70743946  .00000301  00000-0  31174-4 0  9994
2 43188  97.6842 341.9991 0012344  48.2996 311.9279 14.96992236169975
S-NET C                 
1 43189U 18014K   21072.77476419  .00000244  00000-0  26198-4 0  9996
2 43189  97.6839 342.0180 0012333  47.9404 312.2865 14.96992428168531
FENGMANIU-1 (FMN-1)     
1 43192U 18015A   21073.42747807  .00003860  00000-0  14691-3 0  9997
2 43192  97.4726 208.4658 0014084 213.7868 187.7342 15.27278264173086
ZHANGZHENG-1 (CSES)     
1 43194U 18015C   21073.44537889  .00001523  00000-0  71792-4 0  9998
2 43194  97.4626 201.5829 0011783 244.8160 155.4197 15.20984516172709
NUSAT-4 (ADA)           
1 43195U 18015D   21073.36349513  .00001882  00000-0  77205-4 0  9998
2 43195  97.4693 206.9459 0015755 224.7314 192.2831 15.25415767173025
GOMX-4B                 
1 43196U 18015E   21072.85781970  .00000811  00000-0  35585-4 0  9995
2 43196  97.4686 206.0270 0017072 233.4329 126.5338 15.24776852172943
GOMX-4A                 
1 43197U 18015F   21073.41801199  .00001409  00000-0  58959-4 0  9999
2 43197  97.4670 206.7778 0017335 232.8597 165.0092 15.25153053173050
SHAONIAN XING           
1 43199U 18015H   21073.42348429  .00002650  00000-0  10262-3 0  9997
2 43199  97.4498 205.9559 0015155 223.1886 168.3059 15.26985789173149
NUSAT-5 (MARYAM)        
1 43204U 18015K   21073.44191315  .00002008  00000-0  81605-4 0  9993
2 43204  97.4704 207.3490 0015081 226.7526 174.6543 15.25651765172650
BEIDOU-3 M5             
1 43207U 18018A   21071.91197421  .00000018  00000-0  00000-0 0  9998
2 43207  55.2788 127.3069 0006257 323.5701  36.4717  1.86231617 20940
BEIDOU-3 M6             
1 43208U 18018B   21071.97867092  .00000018  00000-0  00000-0 0  9993
2 43208  55.2772 127.3088 0008763 295.3828  64.6108  1.86231713 20949
PAZ                     
1 43215U 18020A   21073.48232654 -.00000662  00000-0 -28359-4 0  9990
2 43215  97.4463  82.3960 0001780  82.6708  71.1423 15.19146128169412
GOES 17                 
1 43226U 18022A   21072.70821631  .00000081  00000-0  00000-0 0  9999
2 43226   0.0671 296.3689 0000516 107.3155 245.5837  1.00273499 11146
HISPASAT 30W-6          
1 43228U 18023A   21072.94497453 -.00000232  00000-0  00000+0 0  9997
2 43228   0.0500  41.5076 0005300 340.4976  99.9235  1.00272152 11234
PODSAT                  
1 43229U 18023B   21073.41454333  .00238581  37272-6  48213-3 0  9999
2 43229  26.9095 224.5657 5262308 296.9054  19.2716  5.37191978 55786
O3B FM15                
1 43231U 18024A   21072.54441413 -.00000031  00000-0  00000-0 0  9991
2 43231   0.0497  14.0261 0002782 333.6032  12.3582  5.00115574 54893
O3B FM16                
1 43232U 18024B   21072.99749294 -.00000031  00000-0  00000+0 0  9998
2 43232   0.0489  18.6263 0002814 329.3565  12.0050  5.00115547 55063
O3B FM14                
1 43233U 18024C   21072.43769478 -.00000031  00000-0  00000-0 0  9995
2 43233   0.0479  20.1654 0002983 328.6514  11.1708  5.00115974 54814
O3B FM13                
1 43234U 18024D   21073.45076847 -.00000030  00000-0  00000+0 0  9998
2 43234   0.0726   6.8155 0004391 305.6046  47.5378  5.00115854 55091
LKW-4                   
1 43236U 18025A   21073.42104554  .00001339  00000-0  59351-4 0  9995
2 43236  97.4296 192.8336 0006619  64.1557 296.0362 15.23333235166426
COSMOS 2525             
1 43243U 18028A   21073.42205644  .00354800  62759-4  39922-3 0  9996
2 43243  96.3878 111.1274 0005812 147.1329 336.3755 16.09326607172449
BEIDOU-3 M7             
1 43245U 18029A   21073.13965762 -.00000113  00000-0  00000+0 0  9995
2 43245  55.3210   6.1773 0001650 327.9397 300.1183  1.86232567 20112
BEIDOU-3 M8             
1 43246U 18029B   21073.42611942 -.00000113  00000-0  10000-3 0  9991
2 43246  55.3181   6.1997 0005418 342.2898 163.9341  1.86232694 20112
IRIDIUM 144             
1 43249U 18030A   21073.36374828  .00000079  00000-0  21220-4 0  9995
2 43249  86.4021  13.1385 0002538  86.7679 273.3807 14.34216690154845
IRIDIUM 149             
1 43250U 18030B   21073.37008349  .00000067  00000-0  16864-4 0  9995
2 43250  86.4020  13.1234 0002605  82.6902 277.4590 14.34217038154849
IRIDIUM 157             
1 43251U 18030C   21072.83097490  .00000071  00000-0  18228-4 0  9992
2 43251  86.4021  13.3590 0001803  83.3141 276.8259 14.34216879154746
IRIDIUM 140             
1 43252U 18030D   21072.84999949  .00000074  00000-0  19466-4 0  9992
2 43252  86.4021  13.3654 0003067  89.4133 270.7414 14.34217984154801
IRIDIUM 145             
1 43253U 18030E   21073.18614944  .00000078  00000-0  20935-4 0  9997
2 43253  86.4021  13.2043 0003286  69.5474 290.6074 14.34220282154788
IRIDIUM 146             
1 43254U 18030F   21073.09736429  .00000076  00000-0  20115-4 0  9999
2 43254  86.4021  13.2582 0002407  77.0138 283.1327 14.34217934154780
IRIDIUM 148             
1 43255U 18030G   21072.85633910  .00000066  00000-0  16633-4 0  9993
2 43255  86.4022  13.3743 0002043  77.5945 282.5479 14.34217140154789
IRIDIUM 142             
1 43256U 18030H   21073.10369918  .00000081  00000-0  21711-4 0  9997
2 43256  86.4020  13.2309 0002218  82.1800 277.9648 14.34215308154781
IRIDIUM 150             
1 43257U 18030J   21073.35106813  .00000072  00000-0  18492-4 0  9990
2 43257  86.4022  13.1818 0002350  86.6259 273.5206 14.34216193154866
IRIDIUM 143             
1 43258U 18030K   21072.84365872  .00000076  00000-0  20085-4 0  9991
2 43258  86.4025  13.4070 0002660  78.1098 282.0395 14.34216671154702
GAOFEN 1-02             
1 43259U 18031A   21073.44281640  .00000071  00000-0  17479-4 0  9998
2 43259  97.9396 153.7691 0005347  63.1568 297.0186 14.76509474159261
GAOFEN 1-03             
1 43260U 18031B   21073.42148666  .00000100  00000-0  21537-4 0  9991
2 43260  97.9392 153.7409 0006246 118.3944 241.7891 14.76527574159255
GAOFEN 1-04             
1 43262U 18031D   21073.46429656  .00000080  00000-0  18802-4 0  9996
2 43262  97.9395 153.7791 0005999  79.4466 280.7421 14.76510391159255
SUPERBIRD 8             
1 43271U 18033A   21072.83968083 -.00000109  00000-0  00000-0 0  9990
2 43271   0.0297 245.5276 0000646 109.0555 281.3475  1.00271265 10789
HYLAS 4                 
1 43272U 18033B   21073.44675524 -.00000247  00000-0  00000+0 0  9996
2 43272   0.0605 125.3456 0001517  39.7024 134.5560  1.00272580 10815
YAOGAN 31 A             
1 43275U 18034A   21073.31454925 -.00000062  00000-0  45687-4 0  9996
2 43275  63.4070 347.9155 0103037   2.9632 357.1983 13.45205266143809
YAOGAN 31 B             
1 43276U 18034B   21073.31474631 -.00000068  00000-0  36862-4 0  9994
2 43276  63.4065 347.8996 0103482   2.9248 357.2359 13.45205148143800
YAOGAN 31 C             
1 43277U 18034C   21073.31458032 -.00000065  00000-0  40608-4 0  9992
2 43277  63.4075 347.0925 0103177   2.8866 357.2741 13.45205365143820
WEINA 1B                
1 43279U 18034E   21073.55267470 -.00000090  00000-0  31207-6 0  9999
2 43279  63.4064 347.3872 0103195   4.3542 355.8360 13.45190851143837
IRNSS-1I                
1 43286U 18035A   21072.67471772  .00000098  00000-0  00000-0 0  9990
2 43286  28.8866 104.9159 0020225 188.1652 176.4381  1.00276298 10819
